BATSU-CS1 (IRAZU)       
1 43468U 98067NR  20035.53951238  .00191095  25388-4  48156-3 0  9993
2 43468  51.6288 219.4103 0003682 253.7821 106.2782 15.95205245199399
CUBERRT                 
1 43546U 98067NU  20034.98923944  .00013642  00000-0  11955-3 0  9999
2 43546  51.6351 249.0525 0002877 291.4452  68.6238 15.69202340 89106
TEMPEST-D               
1 43547U 98067NV  20035.02158083  .00004576  00000-0  60619-4 0  9998
2 43547  51.6370 269.5822 0004357 266.8766  93.1729 15.60504260 88513
RAINCUBE                
1 43548U 98067NW  20034.97843124  .00017256  00000-0  15842-3 0  9995
2 43548  51.6342 257.2110 0003645 280.2280  79.8305 15.67830247 89120
HALOSAT                 
1 43549U 98067NX  20035.00015076  .00014959  00000-0  13905-3 0  9993
2 43549  51.6357 257.3990 0003596 283.2191  76.8404 15.67652310 88683
ENDUROSAT ONE           
1 43551U 98067NZ  20034.99882228  .00024461  00000-0  19355-3 0  9998
2 43551  51.6337 251.3494 0003464 292.8325  67.2307 15.71192779 89170
EQUISAT                 
1 43552U 98067PA  20035.01582102  .00016834  00000-0  15366-3 0  9994
2 43552  51.6365 256.0440 0004093 292.2582  67.7981 15.67992950 89079
AEROCUBE 12A            
1 43556U 18046C   20035.04370610  .00001416  00000-0  61453-4 0  9998
2 43556  51.6432  31.1763 0008312 171.0596 189.0534 15.29364294 86807
AEROCUBE 12B            
1 43557U 18046D   20035.40913495  .00000677  00000-0  36117-4 0  9990
2 43557  51.6431  29.8587 0008366 171.6013 188.5109 15.29145634 86801
UITMSAT-1               
1 43589U 98067PD  20035.00955314  .00020535  00000-0  17797-3 0  9995
2 43589  51.6329 255.8768 0003322 301.5191  58.5482 15.69110222 84810
MAYA-1                  
1 43590U 98067PE  20035.32111032  .00020308  00000-0  17595-3 0  9997
2 43590  51.6330 254.2150 0003438 302.5865  57.4799 15.69126076 84799
BHUTAN-1                
1 43591U 98067PF  20034.66561774  .00022217  00000-0  19158-3 0  9994
2 43591  51.6346 257.3852 0003496 300.1827  59.8823 15.69177129 84694
SIRIUSSAT-1             
1 43595U 98067PG  20034.99671376  .00016947  00000-0  15652-3 0  9992
2 43595  51.6334 258.8076 0002239 244.9033 115.1731 15.67700333 83888
SIRIUSSAT-2             
1 43596U 98067PH  20034.98626231  .00018240  00000-0  16870-3 0  9993
2 43596  51.6345 259.5498 0002657 246.5463 113.5254 15.67602583 83875
TANUSHA-3               
1 43597U 98067PJ  20034.98720216  .00028341  00000-0  21640-3 0  9996
2 43597  51.6313 253.4224 0002059 255.4211 104.6559 15.71956894 83957
SURFSAT                 
1 43614U 18070B   20035.12226886  .00002181  00000-0  57295-4 0  9993
2 43614  93.0332  99.0392 0017600 130.3412 229.9382 15.38544407 77820
CP7 (DAVE)              
1 43615U 18070C   20035.14250353  .00002149  00000-0  56665-4 0  9996
2 43615  93.0337  99.0443 0017748 129.7713 230.5107 15.38431707 77823
ELFIN-B                 
1 43616U 18070D   20034.96264151  .00003421  00000-0  87023-4 0  9993
2 43616  93.0297  98.8814 0018226 133.0276 227.2509 15.39480759 77823
ELFIN-A                 
1 43617U 18070E   20034.48963606  .00003783  00000-0  95846-4 0  9995
2 43617  93.0353  99.0845 0017565 131.4336 228.8431 15.39610719 77752
CUBEBEL-1 (BSUSAT-1)    
1 43666U 18083E   20035.51028006  .00000984  00000-0  51630-4 0  9997
2 43666  97.5034  63.2206 0016865 105.0810  37.6598 15.17990218 70294
DEBRISSAT-2             
1 43680U 98067PR  20034.60331932  .00054528  00000-0  33768-3 0  9991
2 43680  51.6344 251.6384 0001566 247.0902 112.9932 15.76510225 92672
CICERO 10               
1 43690U 18088A   20035.13787901  .00000992  00000-0  44059-4 0  9999
2 43690  85.0407 166.7992 0017181  84.3095 276.0104 15.20010280 68334
IRVINE01                
1 43693U 18088D   20035.09049973  .00002439  00000-0  10367-3 0  9999
2 43693  85.0374 165.9034 0019832  69.1521 291.1842 15.22288527 68406
PROXIMA I               
1 43694U 18088E   20034.49375429  .00000973  00000-0  40870-4 0  9995
2 43694  85.0350 166.0937 0021235  63.1170 297.2239 15.21744002 68310
PROXIMA II              
1 43696U 18088G   20035.14981119  .00000912  00000-0  38227-4 0  9995
2 43696  85.0351 165.6626 0021231  60.8680 299.4683 15.21748974 68419
FACSAT-1                
1 43721U 18096C   20035.46800147  .00001370  00000-0  54619-4 0  9991
2 43721  97.4354 109.7085 0016494 232.6514 127.3223 15.26847117 65944
CENTAURI-2              
1 43722U 18096D   20035.46928965  .00001790  00000-0  69613-4 0  9997
2 43722  97.4362 109.8720 0016563 232.8864 127.0862 15.27253025 65944
INNOSAT-2               
1 43738U 18096V   20035.45172187  .00002383  00000-0  85091-4 0  9997
2 43738  97.4373 111.2917 0022440 242.8607 117.0345 15.29644364 66044
SIRION PATHFINDER-2     
1 43759U 18099B   20035.47060294  .00000335  00000-0  35651-4 0  9992
2 43759  97.7208 109.3231 0012833 270.1256  89.8494 14.95221134 63904
CORVUS-BC 4             
1 43767U 18099K   20035.02719395  .00000218  00000-0  25391-4 0  9995
2 43767  97.7195 108.4416 0010278 276.6442  83.3609 14.94664240 63828
MOVE-II                 
1 43780U 18099Y   20034.95598747  .00000688  00000-0  67696-4 0  9992
2 43780  97.7214 108.7204 0012034 284.6651  75.3235 14.95268885 63817
SPACEBEE-7              
1 43816U 18099BL  20034.92256849  .00000018  00000-0  68403-5 0  9998
2 43816  97.7224 108.9946 0012109 267.6274  92.3561 14.95578847 63383
SPACEBEE-5              
1 43817U 18099BM  20035.19171947  .00000609  00000-0  59377-4 0  9999
2 43817  97.7261 109.5175 0012023 265.9554  94.0293 14.96037376 63438
SPACEBEE-6              
1 43818U 18099BN  20035.10191627  .00000328  00000-0  34656-4 0  9999
2 43818  97.7239 109.2525 0011885 266.9116  93.0745 14.95728592 63561
SHIELDS 1               
1 43850U 18104B   20035.34791272  .00000041  00000-0  00000+0 0  9993
2 43850  85.0238 263.9873 0013639 194.6576 165.4372 15.21265410 63088
STF-1                   
1 43852U 18104D   20035.14774433  .00000041  00000-0  00000+0 0  9993
2 43852  85.0353 264.5615 0012877 211.1919 148.8728 15.20998916 63036
ZACUBE-2                
1 43907U 18111AH  20035.48767901  .00000520  00000-0  23972-4 0  9991
2 43907  97.2776 299.1962 0019897 255.9741 103.9284 15.24437523 61604
LUME 1                  
1 43908U 18111AJ  20034.98653662  .00000924  00000-0  39984-4 0  9992
2 43908  97.2776 298.8018 0019735 257.8473 102.0555 15.24762124 61538
AOBA VELOX-IV           
1 43940U 19003J   20035.44648359  .00002032  00000-0  84852-4 0  9994
2 43940  97.2474  91.2217 0023315 341.6456  75.5622 15.24524821 58239
CATSAT-2                
1 44029U 98067PV  20034.93300577  .00011387  00000-0  13800-3 0  9997
2 44029  51.6384 275.7790 0003330 293.6202  66.4442 15.61162382 57483
DELPHINI                
1 44030U 98067PW  20034.95166293  .00012942  00000-0  15306-3 0  9997
2 44030  51.6356 275.0950 0003139 286.7087  73.3562 15.61658784 57460
UNITE                   
1 44031U 98067PX  20034.72638770  .00008003  00000-0  10784-3 0  9995
2 44031  51.6374 279.6222 0002323 284.0053  76.0682 15.58832169 57382
TECHEDSAT 8             
1 44032U 98067PY  20034.89915335  .00071159  00000-0  43562-3 0  9991
2 44032  51.6298 261.1730 0002396 233.9723 126.1055 15.76662873 57626
CATSAT-1                
1 44033U 98067PZ  20034.93282949  .00012034  00000-0  14541-3 0  9997
2 44033  51.6386 275.7814 0003233 292.5391  67.5260 15.61176187 57394
RAAVANA-1               
1 44329U 98067QE  20034.95130327  .00007684  00000-0  11818-3 0  9998
2 44329  51.6399 287.1534 0006320 212.7768 147.2832 15.55277129 36056
UGUISU                  
1 44330U 98067QF  20034.70087735  .00008555  00000-0  13106-3 0  9997
2 44330  51.6398 288.4788 0006297 210.4205 149.6422 15.55215789 35993
NEPALISAT-1             
1 44331U 98067QG  20034.94623759  .00007591  00000-0  11671-3 0  9990
2 44331  51.6398 287.1199 0006294 214.2679 145.7907 15.55308195 36046
SPOOQY-1                
1 44332U 98067QH  20034.94408521  .00007427  00000-0  11448-3 0  9999
2 44332  51.6397 287.1023 0005145 215.1771 144.8881 15.55279000 36008
SPACEBEE-9              
1 44370U 19037F   20034.70207397  .00008944  00000-0  21706-3 0  9996
2 44370  45.0110 148.0733 0012165 117.3056 242.9289 15.41389966 33795
SPACEBEE-8              
1 44371U 19037G   20035.58072649  .00015939  00000-0  35053-3 0  9996
2 44371  45.0112 141.1137 0009519 119.0787 241.1065 15.43835108 33945
IOD-1 GEMS              
1 44385U 98067QK  20035.07166220  .00012053  00000-0  17538-3 0  9996
2 44385  51.6407 286.4850 0003316 172.3350 187.7693 15.56191353 33530
MOVE-IIB                
1 44398U 19038N   20035.15760699  .00000987  00000-0  60941-4 0  9990
2 44398  97.5192 358.2735 0024078 228.0224 131.8955 15.12021230 32281
SONATE                  
1 44400U 19038Q   20035.10042243  .00000453  00000-0  30171-4 0  9997
2 44400  97.5218 358.2357 0024077 226.2165 133.7074 15.11819975 32279
LUCKY-7                 
1 44406U 19038W   20034.93956541  .00000457  00000-0  30237-4 0  9995
2 44406  97.5214 358.1378 0023538 226.6493 133.2776 15.12048061 32244
BEESAT 9                
1 44412U 19038AC  20035.14124340  .00000656  00000-0  41760-4 0  9994
2 44412  97.5209 358.3201 0021531 231.9123 128.0166 15.12069643 31975
JAISAT-1                
1 44419U 19038F   20034.93974714  .00000645  00000-0  40620-4 0  9997
2 44419  97.5210 358.2845 0020388 232.0196 127.9194 15.12551617 32267
SWIATOWID               
1 44426U 98067QL  20035.53003679  .00015193  00000-0  21710-3 0  9996
2 44426  51.6423 284.1530 0003983 168.2154 255.8076 15.56449737 33624
KRAKSAT                 
1 44427U 98067QM  20035.08218871  .00005911  00000-0  96870-4 0  9996
2 44427  51.6413 288.0478 0004047 165.3879 194.7229 15.54011341 33571
VCC A                   
1 44428U 98067QN  20035.08742970  .00007601  00000-0  11919-3 0  9997
2 44428  51.6411 287.3362 0003138 180.9156 179.1830 15.54764668 33588
